CAS-2T & KS-1Q          
1 41847U 16066G   23035.89100334  .00001568  00000+0  24464-3 0  9996
2 41847  98.5220 105.0254 0361101 234.0495 122.6697 14.39107748327771
NAYIF-1 (EO-88)         
1 42017U 17008BX  23035.90222593  .00044589  00000+0  87822-3 0  9994
2 42017  97.2378 104.7970 0003835 124.5795 235.5817 15.47093587332831
ZHUHAI-1 02 (CAS-4B)    
1 42759U 17034B   23035.78870968  .00007923  00000+0  43565-3 0  9994
2 42759  43.0166 130.1483 0011683 320.9922 183.1985 15.14357168311545
ZHUHAI-1 01 (CAS-4A)    
1 42761U 17034D   23035.68026106  .00007063  00000+0  38829-3 0  9995
2 42761  43.0153 129.3547 0011901 321.0794 193.8608 15.14492552311533
MAX VALIER SAT          
1 42778U 17036P   23035.89083833  .00013288  00000+0  42642-3 0  9992
2 42778  97.1771  74.3041 0008620 208.4195 151.6579 15.32400826312423
RADFXSAT (FOX-1B)       
1 43017U 17073E   23035.91850007  .00005191  00000+0  37693-3 0  9992
2 43017  97.6504 285.5384 0241963 144.9244 216.8178 14.83691862281558
FOX-1D (AO-92)          
1 43137U 18004AC  23035.75190825  .00022160  00000+0  63097-3 0  9999
2 43137  97.3450 114.3877 0005998 255.0318 105.0262 15.36105744281917
DIWATA-2B               
1 43678U 18084H   23035.90266517  .00001893  00000+0  18895-3 0  9992
2 43678  97.9979 177.4413 0008690 234.5649 125.4735 14.92750820232522
ES'HAIL 2               
1 43700U 18090A   23035.88243779  .00000147  00000+0  00000+0 0  9993
2 43700   0.0163  98.2643 0002566 252.7065 127.2598  1.00274912 15369
FOX-1CLIFF (AO-95)      
1 43770U 18099N   23035.72356392  .00005357  00000+0  45788-3 0  9992
2 43770  97.5924 100.8645 0012876 209.1638 150.8866 14.97988456227765
ITASAT 1                
1 43786U 18099AE  23035.90755520  .00003762  00000+0  32348-3 0  9991
2 43786  97.5942 102.0676 0014193 204.6858 155.3687 14.97921635227833
JY1SAT (JO-97)          
1 43803U 18099AX  23035.69283991  .00004605  00000+0  38625-3 0  9996
2 43803  97.5911 101.7269 0013616 206.0569 153.9970 14.98783433227839
UWE-4                   
1 43880U 18111E   23035.71697188  .00004995  00000+0  40545-3 0  9992
2 43880  97.6558 303.0191 0012178 262.1132  97.8709 15.00028952224491
NEXUS (FO-99)           
1 43937U 19003F   23035.66197539  .00027833  00000+0  71656-3 0  9998
2 43937  97.1063  65.7049 0018141  45.2594 315.0125 15.39026443225574
PSAT2 (NO-104)          
1 44354U 19036R   23035.91665093  .00682663  20719-3  81129-3 0  9998
2 44354  28.5142 320.1561 0057410 151.7067 208.6684 16.03752239200998
JAISAT-1                
1 44419U 19038F   23035.90405804  .00016973  00000+0  72566-3 0  9990
2 44419  97.6631  14.0279 0019187  53.0094 307.2895 15.22748088198351
DUCHIFAT-3              
1 44854U 19089C   23035.74190657  .00007249  00000+0  52754-3 0  9991
2 44854  36.9628 161.2865 0008546 318.3026 185.9893 15.03419103172871
CAS-6 (TIANQIN 1)       
1 44881U 19093C   23035.92578312  .00000954  00000+0  12631-3 0  9990
2 44881  97.8738 116.6067 0015599 145.1516 215.0716 14.82102476169203
RS-44 & BREEZE-KM R/B   
1 44909U 19096E   23035.86123758  .00000042  00000+0  11679-3 0  9996
2 44909  82.5180  75.8751 0218290 136.1636 225.7023 12.79718073145289
ORBITAL FACTORY 2 (OF-2)
1 45113U 19071C   23035.26410558  .00164912  00000+0  12384-2 0  9998
2 45113  51.6308 343.9027 0001326 359.0502   1.0493 15.71545984169421
HUSKYSAT-1 (HO-107)     
1 45119U 19071J   23035.16526750  .00111190  00000+0  10898-2 0  9993
2 45119  51.6331 348.4697 0002590 327.5993  32.4842 15.65237595169340
BY70-2                  
1 45857U 20042B   23035.83459266  .00012540  00000+0  15026-2 0  9990
2 45857  97.9376 115.8258 0009940  83.1883 277.0479 14.84184913139861
SALSAT                  
1 46495U 20068K   23035.85222370  .00004376  00000+0  30392-3 0  9995
2 46495  97.7570 342.7387 0015189 203.4195 156.6342 15.05995716129149
BY70-3                  
1 46839U 20079N   23035.93881502  .00096174  00000+0  10852-2 0  9991
2 46839  97.1697 111.9714 0004046 214.1082 200.2641 15.62182314126239
RADFXSAT-2 (AO-109)     
1 47311U 21002C   23035.77493057  .00020334  00000+0  66805-3 0  9995
2 47311  60.6814 204.6816 0036349 108.6480 251.8563 15.30997096113950
UVSQ-SAT                
1 47438U 21006AB  23035.89506882  .00011713  00000+0  55365-3 0  9993
2 47438  97.4069  95.2080 0010853 179.9765 180.1472 15.19502171112524
DIY-1 (ARDUIQUBE)       
1 47963U 21022AH  23035.69951204  .00049781  00000+0  19133-2 0  9992
2 47963  97.5156 300.6651 0016318  56.7880 303.4920 15.26130850102182
XW-3 (CAS-9)            
1 50466U 21131B   23035.90056820  .00000834  00000+0  28652-3 0  9992
2 50466  98.5618 117.8424 0005060 165.3949 194.7386 14.38657653 58330
TEVEL-3                 
1 50988U 22002E   23035.80682109  .00013078  00000+0  62800-3 0  9990
2 50988  97.4537 104.1252 0008295 344.3010 110.0517 15.18948608 58627
TEVEL-8                 
1 50989U 22002F   23035.82015201  .00013205  00000+0  63513-3 0  9990
2 50989  97.4556 104.1840 0008197 343.1793 110.6634 15.18891750 58629
TEVEL-5                 
1 50998U 22002Q   23035.81345733  .00013594  00000+0  64122-3 0  9993
2 50998  97.4529 104.3845 0009326 337.6534 116.1968 15.19552899 58644
TEVEL-6                 
1 50999U 22002R   23035.82033446  .00013588  00000+0  64080-3 0  9996
2 50999  97.4527 104.3871 0009355 337.2001 160.7213 15.19559190 58648
TEVEL-1                 
1 51013U 22002AF  23035.81318336  .00013078  00000+0  62857-3 0  9991
2 51013  97.4530 104.0928 0008120 344.2473 109.6208 15.18918405 58621
TEVEL-7                 
1 51062U 22002CG  23035.82457660  .00013279  00000+0  63857-3 0  9994
2 51062  97.4548 104.1673 0008191 342.4564 124.7021 15.18896670 58621
TEVEL-4                 
1 51063U 22002CH  23035.81954096  .00013214  00000+0  63593-3 0  9995
2 51063  97.4548 104.1527 0008186 342.9348  82.4614 15.18870505 58626
TEVEL-2                 
1 51069U 22002CP  23035.80901780  .00013131  00000+0  63058-3 0  9996
2 51069  97.4534 104.1071 0008034 344.2678 111.8455 15.18947472 58622
GREENCUBE               
1 53106U 22080B   23034.19933790 -.00000003  00000+0  00000+0 0  9992
2 53106  70.1777   6.2677 0008922 216.5435 143.4616  6.42557193 13147
RS29S (SXC3-2110 CYCLO*)
1 53373U 22096D   23035.92506166  .00019587  00000+0  67847-3 0  9992
2 53373  97.4265 301.4849 0001396  72.2411  61.0743 15.29884993 27403
RS32S (SXC3-212 MONITO*)
1 53374U 22096E   23035.91885002  .00018424  00000+0  64140-3 0  9993
2 53374  97.4259 301.4816 0001234  99.4051  32.1107 15.29733737 27405
RS34S (SXC3-218 KUZBAS*)
1 53375U 22096F   23035.81131163  .00015819  00000+0  56328-3 0  9999
2 53375  97.4272 301.3047 0001141  90.6684 341.5360 15.29029898 27389
RS23S (SXC3-21 UTMN)    
1 53376U 22096G   23035.99654345  .00016603  00000+0  58769-3 0  9994
2 53376  97.4266 301.5076 0001229  93.0939 323.6242 15.29214178 27415
RS28S (SXC3-214 MIET-A*)
1 53377U 22096H   23035.81015133  .00015734  00000+0  56036-3 0  9991
2 53377  97.4275 301.3154 0001103  90.3566 356.9191 15.29024277 27385
RS26S (KAI-1)           
1 53378U 22096J   23035.88907588  .00013221  00000+0  47826-3 0  9999
2 53378  97.4269 301.3507 0001144 101.1604 321.8819 15.28552307 27398
RS19S (SXC3-219 ISOI)   
1 53381U 22096M   23035.81593343  .00015711  00000+0  55025-3 0  9992
2 53381  97.4269 301.4505 0004557 142.0320 292.8374 15.29565452 27390
RS21S (CUBESX-HSE-2)    
1 53383U 22096P   23035.87309199  .00016169  00000+0  56426-3 0  9998
2 53383  97.4269 301.5271 0004665 143.9526 280.5198 15.29674550 27401
RS30S (SXC3-217 SIREN)  
1 53384U 22096Q   23035.88676353  .00013977  00000+0  49436-3 0  9996
2 53384  97.4273 301.5055 0004677 143.6091 278.7932 15.29269352 27409
RS20S (GEOSCAN-EDELVEIS)
1 53385U 22096R   23035.86659756  .00020550  00000+0  68778-3 0  9998
2 53385  97.4264 301.6805 0004901 139.6005 285.0439 15.30981207 27443
RS33S (SXC3-215 VIZARD) 
1 53386U 22096S   23035.93332883  .00023413  00000+0  75358-3 0  9999
2 53386  97.4262 301.9212 0005764 145.6902 345.0648 15.32209728 27451
CAS-5A (FO-118)         
1 54684U 22167C   23035.95903824  .00008933  00000+0  55303-3 0  9999
2 54684  97.5393 174.9826 0015243  70.3415  78.2177 15.09927735  8690
CAS-10                  
1 54816U 21035C   23035.95501086  .00143157  00000+0  94466-3 0  9994
2 54816  41.4762 239.4231 0013598 265.9617  93.9674 15.74248713  7542
